NORAD_CAT_ID,OBJECT_NAME,OBJECT_TYPE,EPOCH,MEAN_MOTION,ECCENTRICITY,INCLINATION,RA_OF_ASC_NODE,ARG_OF_PERICENTER,MEAN_ANOMALY,BSTAR,MEAN_MOTION_DOT,MEAN_MOTION_DDOT,TLE_LINE0,TLE_LINE1,TLE_LINE2,SEMIMAJOR_AXIS,PERIOD,APOGEE,PERIGEE,DECAYED
51469.0,STARLINK-3182,PAYLOAD,2024-07-14 18:41:58,15.0884171,0.0001255,53.2156,105.6911,80.3989,279.7145,0.000155,2.18e-05,0.0,0 STARLINK-3182,1 51469U 22010P   24196.77915372  .00002180  00000-0  15500-3 0  9998,2 51469  53.2156 105.6911 0001255  80.3989 279.7145 15.08841710136305,6917.875,95.437,540.608,538.872,0.0
51469.0,STARLINK-3182,PAYLOAD,2024-07-14 21:52:45,15.08837294,0.000115,53.2152,105.0965,81.4857,278.6265,8.1258e-05,1.006e-05,0.0,0 STARLINK-3182,1 51469U 22010P   24196.91163575  .00001006  00000-0  81258-4 0  9994,2 51469  53.2152 105.0965 0001150  81.4857 278.6265 15.08837294135823,6917.889,95.438,540.549,538.958,0.0
51469.0,STARLINK-3182,PAYLOAD,2024-07-15 10:35:49,15.08852704,0.000118,53.2161,102.7169,83.8035,276.3091,0.00023846,3.511e-05,0.0,0 STARLINK-3182,1 51469U 22010P   24197.44154528  .00003511  00000-0  23846-3 0  9992,2 51469  53.2161 102.7169 0001180  83.8035 276.3091 15.08852704136400,6917.842,95.437,540.523,538.89,0.0
51469.0,STARLINK-3182,PAYLOAD,2024-07-15 21:43:32,15.08836853,0.0002695,53.2161,100.637,81.0489,279.0808,6.2282e-05,7.03e-06,0.0,0 STARLINK-3182,1 51469U 22010P   24197.90523908  .00000703  00000-0  62282-4 0  9993,2 51469  53.2161 100.6370 0002695  81.0489 279.0808 15.08836853135970,6917.89,95.438,541.619,537.891,0.0
51469.0,STARLINK-3182,PAYLOAD,2024-07-16 02:29:41,15.08834968,0.0001525,53.2179,99.7486,91.6628,268.4539,3.1073e-05,2.07e-06,0.0,0 STARLINK-3182,1 51469U 22010P   24198.10395827  .00000207  00000-0  31073-4 0  9996,2 51469  53.2179  99.7486 0001525  91.6628 268.4539 15.08834968136506,6917.896,95.438,540.816,538.706,0.0
51469.0,STARLINK-3182,PAYLOAD,2024-07-16 21:34:19,15.08846052,0.0001515,53.2171,96.1814,105.6268,254.4891,0.00021646,3.159e-05,0.0,0 STARLINK-3182,1 51469U 22010P   24198.89883243  .00003159  00000-0  21646-3 0  9999,2 51469  53.2171  96.1814 0001515 105.6268 254.4891 15.08846052136120,6917.862,95.437,540.775,538.679,0.0
51469.0,STARLINK-3182,PAYLOAD,2024-07-17 00:45:05,15.08848671,0.0001299,53.2158,95.5846,110.6766,249.4365,0.00026497,3.933e-05,0.0,0 STARLINK-3182,1 51469U 22010P   24199.03131151  .00003933  00000-0  26497-3 0  9999,2 51469  53.2158  95.5846 0001299 110.6766 249.4365 15.08848671136647,6917.854,95.437,540.618,538.82,0.0
51469.0,STARLINK-3182,PAYLOAD,2024-07-17 10:17:23,15.08856865,0.0001435,53.2173,93.8004,88.0374,272.0783,0.00036193,5.479e-05,0.0,0 STARLINK-3182,1 51469U 22010P   24199.42874637  .00005479  00000-0  36193-3 0  9996,2 51469  53.2173  93.8004 0001435  88.0374 272.0783 15.08856865136208,6917.829,95.436,540.687,538.701,0.0
51469.0,STARLINK-3182,PAYLOAD,2024-07-17 21:25:06,15.08830396,0.000125,53.2176,91.7165,93.7217,266.3918,-0.00010284,-1.924e-05,0.0,0 STARLINK-3182,1 51469U 22010P   24199.89243788 -.00001924  00000-0 -10284-3 0  9990,2 51469  53.2176  91.7165 0001250  93.7217 266.3918 15.08830396136779,6917.91,95.438,540.639,538.91,0.0
51469.0,STARLINK-3182,PAYLOAD,2024-07-17 23:00:29,15.08824124,9.45e-05,53.2174,91.4187,120.6812,239.4274,1.8104e-05,0.0,0.0,0 STARLINK-3182,1 51469U 22010P   24199.95867554  .00000000  00000-0  18104-4 0  9992,2 51469  53.2174  91.4187 0000945 120.6812 239.4274 15.08824124136283,6917.929,95.439,540.448,539.14,0.0
51469.0,STARLINK-3182,PAYLOAD,2024-07-18 00:35:52,15.08840613,0.000117,53.2156,91.1214,106.1494,253.9627,0.00091414,0.00014291,0.0,0 STARLINK-3182,1 51469U 22010P   24200.02491563  .00014291  00000-0  91414-3 0  9997,2 51469  53.2156  91.1214 0001170 106.1494 253.9627 15.08840613136797,6917.879,95.438,540.553,538.934,0.0
51469.0,STARLINK-3182,PAYLOAD,2024-07-18 22:51:17,15.08848704,0.0001126,53.2154,86.9598,106.7834,253.3282,0.0012301,0.00019348,0.0,0 STARLINK-3182,1 51469U 22010P   24200.95228271  .00019348  00000-0  12301-2 0  9998,2 51469  53.2154  86.9598 0001126 106.7834 253.3282 15.08848704136438,6917.854,95.437,540.498,538.94,0.0
51469.0,STARLINK-3182,PAYLOAD,2024-07-19 09:58:58,15.0885331,0.0001128,53.215,84.8743,114.9708,245.1401,0.00081586,0.00012725,0.0,0 STARLINK-3182,1 51469U 22010P   24201.41595979  .00012725  00000-0  81586-3 0  9996,2 51469  53.2150  84.8743 0001128 114.9708 245.1401 15.08853310137001,6917.84,95.437,540.485,538.924,0.0
51469.0,STARLINK-3182,PAYLOAD,2024-07-19 21:06:41,15.08843371,0.0001971,53.2174,82.7911,131.1168,228.9994,0.00044271,6.765e-05,0.0,0 STARLINK-3182,1 51469U 22010P   24201.87964192  .00006765  00000-0  44271-3 0  9990,2 51469  53.2174  82.7911 0001971 131.1168 228.9994 15.08843371137077,6917.87,95.437,541.099,538.372,0.0
51469.0,STARLINK-3182,PAYLOAD,2024-07-19 22:42:04,15.08841114,0.0001341,53.2159,82.4973,94.7895,265.3251,0.00027376,4.072e-05,0.0,0 STARLINK-3182,1 51469U 22010P   24201.94588415  .00004072  00000-0  27376-3 0  9994,2 51469  53.2159  82.4973 0001341  94.7895 265.3251 15.08841114136586,6917.877,95.437,540.67,538.814,0.0
51469.0,STARLINK-3182,PAYLOAD,2024-07-20 20:57:28,15.08841005,0.0001139,53.2166,78.3334,87.6547,272.4575,0.00021975,3.211e-05,0.0,0 STARLINK-3182,1 51469U 22010P   24202.87324528  .00003211  00000-0  21975-3 0  9993,2 51469  53.2166  78.3334 0001139  87.6547 272.4575 15.08841005137228,6917.877,95.437,540.53,538.954,0.0
51469.0,STARLINK-3182,PAYLOAD,2024-07-20 22:32:51,15.08840976,0.0001274,53.2172,78.0365,89.1045,271.0093,0.0001753,2.503e-05,0.0,0 STARLINK-3182,1 51469U 22010P   24202.93948631  .00002503  00000-0  17530-3 0  9992,2 51469  53.2172  78.0365 0001274  89.1045 271.0093 15.08840976136737,6917.877,95.437,540.624,538.861,0.0
51469.0,STARLINK-3182,PAYLOAD,2024-07-21 20:48:15,15.08841789,0.0001114,53.2163,73.873,85.4853,274.6266,0.00017296,2.466e-05,0.0,0 STARLINK-3182,1 51469U 22010P   24203.86684629  .00002466  00000-0  17296-3 0  9996,2 51469  53.2163  73.8730 0001114  85.4853 274.6266 15.08841789136874,6917.875,95.437,540.511,538.969,0.0
51469.0,STARLINK-3182,PAYLOAD,2024-07-22 15:52:52,15.08850528,0.0001073,53.2158,70.3021,81.292,278.8194,0.00031199,4.682e-05,0.0,0 STARLINK-3182,1 51469U 22010P   24204.66172113  .00004682  00000-0  31199-3 0  9995,2 51469  53.2158  70.3021 0001073  81.2920 278.8194 15.08850528136996,6917.848,95.437,540.455,538.971,0.0
51469.0,STARLINK-3182,PAYLOAD,2024-07-23 07:46:42,15.08873674,0.0001166,53.217,67.335,96.6866,263.4258,0.00055869,8.623e-05,0.0,0 STARLINK-3182,1 51469U 22010P   24205.32410473  .00008623  00000-0  55869-3 0  9992,2 51469  53.2170  67.3350 0001166  96.6866 263.4258 15.08873674137598,6917.777,95.435,540.449,538.836,0.0
51469.0,STARLINK-3182,PAYLOAD,2024-07-23 23:40:35,15.08823073,0.0001547,53.2151,64.3568,84.2896,275.8272,-0.00049027,-8.079e-05,0.0,0 STARLINK-3182,1 51469U 22010P   24205.98652057 -.00008079  00000-0 -49027-3 0  9996,2 51469  53.2151  64.3568 0001547  84.2896 275.8272 15.08823073137696,6917.932,95.439,540.867,538.727,0.0
51469.0,STARLINK-3182,PAYLOAD,2024-07-25 13:49:52,15.08819657,0.0001115,53.2163,57.221,100.7129,259.3989,0.00024103,3.548e-05,0.0,0 STARLINK-3182,1 51469U 22010P   24207.57630766  .00003548  00000-0  24103-3 0  9998,2 51469  53.2163  57.2210 0001115 100.7129 259.3989 15.08819657137930,6917.943,95.439,540.579,539.036,0.0
51469.0,STARLINK-3182,PAYLOAD,2024-07-25 21:46:48,15.08856235,0.000102,53.2159,55.7342,127.2022,232.9063,0.00086074,0.00013443,0.0,0 STARLINK-3182,1 51469U 22010P   24207.90750265  .00013443  00000-0  86074-3 0  9992,2 51469  53.2159  55.7342 0001020 127.2022 232.9063 15.08856235137488,6917.831,95.437,540.401,538.99,0.0
51469.0,STARLINK-3182,PAYLOAD,2024-07-26 21:37:33,15.08867309,0.0001076,53.2135,51.2748,91.8869,268.2247,0.00016745,2.38e-05,0.0,0 STARLINK-3182,1 51469U 22010P   24208.90108561  .00002380  00000-0  16745-3 0  9995,2 51469  53.2135  51.2748 0001076  91.8869 268.2247 15.08867309137636,6917.797,95.436,540.406,538.918,0.0
51469.0,STARLINK-3182,PAYLOAD,2024-07-27 21:28:21,15.08837597,9.92e-05,53.2166,46.8099,99.2443,260.8662,-0.00022874,-3.926e-05,0.0,0 STARLINK-3182,1 51469U 22010P   24209.89469058 -.00003926  00000-0 -22874-3 0  9994,2 51469  53.2166  46.8099 0000992  99.2443 260.8662 15.08837597137786,6917.888,95.438,540.439,539.066,0.0
51469.0,STARLINK-3182,PAYLOAD,2024-07-28 18:08:22,15.08843765,0.0001138,53.2167,42.947,90.0765,270.0357,-0.00012302,-2.245e-05,0.0,0 STARLINK-3182,1 51469U 22010P   24210.75581418 -.00002245  00000-0 -12302-3 0  9994,2 51469  53.2167  42.9470 0001138  90.0765 270.0357 15.08843765137919,6917.869,95.437,540.521,538.947,0.0
51469.0,STARLINK-3182,PAYLOAD,2024-07-28 22:54:31,15.0884579,0.000119,53.2169,42.0555,89.2718,270.8411,0.0002315,3.399e-05,0.0,0 STARLINK-3182,1 51469U 22010P   24210.95453379  .00003399  00000-0  23150-3 0  9992,2 51469  53.2169  42.0555 0001190  89.2718 270.8411 15.08845790138440,6917.863,95.437,540.551,538.904,0.0
51469.0,STARLINK-3182,PAYLOAD,2024-07-29 11:37:36,15.08848917,0.0001047,53.2174,39.6798,95.6875,264.4237,0.00019085,2.752e-05,0.0,0 STARLINK-3182,1 51469U 22010P   24211.48445360  .00002752  00000-0  19085-3 0  9996,2 51469  53.2174  39.6798 0001047  95.6875 264.4237 15.08848917138026,6917.853,95.437,540.442,538.994,0.0
51469.0,STARLINK-3182,PAYLOAD,2024-07-30 05:06:50,15.08857482,0.0001122,53.2182,36.4054,87.0613,273.0508,0.00034606,5.227e-05,0.0,0 STARLINK-3182,1 51469U 22010P   24212.21308842  .00005227  00000-0  34606-3 0  9997,2 51469  53.2182  36.4054 0001122  87.0613 273.0508 15.08857482138635,6917.827,95.436,540.468,538.916,0.0
51469.0,STARLINK-3182,PAYLOAD,2024-07-30 19:25:19,15.08848526,0.0001291,53.2175,33.7297,84.9827,275.1312,0.00010463,1.378e-05,0.0,0 STARLINK-3182,1 51469U 22010P   24212.80925139  .00001378  00000-0  10463-3 0  9994,2 51469  53.2175  33.7297 0001291  84.9827 275.1312 15.08848526138721,6917.854,95.437,540.612,538.826,0.0
